satname,norad_id,inclination_deg,eccentricity,mean_motion_rev_per_day,perigee_km,apogee_km,l1,l2
STARLINK-1184,45098,53.0556,0.0005134,15.09098242,535.4029244449493,542.5053936470586,1 45098U 20006BG  26038.34568468  .00038131  00000+0  23834-2 0  9994,2 45098  53.0556  22.3352 0005134  49.4404 310.7033 15.09098242332451
STARLINK-1193,45100,53.0552,0.0004874,15.47002364,422.18477579997307,428.81696199457383,1 45100U 20006BJ  26038.91667824  .00092844  00000+0  17955-2 0  9995,2 45100  53.0552  13.3964 0004874  89.4912 165.2789 15.47002364  5863
STARLINK-1143,45179,53.0483,0.0003849,15.56485745,395.2291154116556,400.44526034148294,1 45179U 20012B   26038.49876815  .00046344  00000+0  64565-3 0  9997,2 45179  53.0483 116.7442 0003849 319.7987  40.2738 15.56485745331218
STARLINK-1202,45183,53.1587,0.0001439,15.30153294,474.3683112327835,476.34074609473373,1 45183U 20012F   26038.64372578  .00071281  00000+0  23993-2 0  9993,2 45183  53.1587 178.8101 0001439  71.4979 288.6178 15.30153294330359
STARLINK-1216,45185,53.1611,0.0001089,15.30199245,474.47099342830916,475.9636540000147,1 45185U 20012H   26038.56891149  .00001507  00000+0  62997-4 0  9999,2 45185  53.1611 179.1365 0001089  78.8244 281.2879 15.30199245330287
STARLINK-1225,45187,53.1625,0.000147,15.30183991,474.25542004355975,476.270319605288,1 45187U 20012K   26038.63115045  .00000433  00000+0  26777-4 0  9996,2 45187  53.1625 179.2885 0001470  63.4839 296.6313 15.30183991330336
STARLINK-1230,45189,53.1628,0.0001689,15.30178796,474.12083961444387,476.43592333030483,1 45189U 20012M   26038.70595627  .00007644  00000+0  27011-3 0  9996,2 45189  53.1628 179.0029 0001689  56.8804 303.2358 15.30178796327572
STARLINK-1234,45190,53.0451,0.0007325,15.5551735,395.6837127244162,405.61463446873495,1 45190U 20012N   26038.91667824  .00093447  00000+0  13332-2 0  9996,2 45190  53.0451 110.0589 0007325 227.6053 224.4532 15.55517350  5964
STARLINK-1269,45197,53.1614,0.0001369,15.3019772,474.2836522665293,476.16010192707836,1 45197U 20012V   26038.70276301  .00004271  00000+0  15624-3 0  9990,2 45197  53.1614 178.8738 0001369  87.4733 272.6425 15.30197720330325
STARLINK-1154,45198,53.0519,0.0004165,15.41671516,438.3355117197407,444.015999245059,1 45198U 20012W   26038.57932880  .00121303  00000+0  27975-2 0  9994,2 45198  53.0519 153.1110 0004165 344.6073  15.4804 15.41671516330642
STARLINK-1199,45201,53.0524,0.0001389,15.06404828,546.2348319937746,548.1586897125408,1 45201U 20012Z   26038.61293822  .00004380  00000+0  31273-3 0  9992,2 45201  53.0524 161.6387 0001389  56.7894 303.3228 15.06404828330583
STARLINK-1209,45206,53.0474,0.0009066,15.4572472,423.0778813397055,435.42103446517376,1 45206U 20012AE  26038.91667824  .00043193  00000+0  88223-3 0  9999,2 45206  53.0474 115.9334 0009066 201.6726 163.0472 15.45724720  5738
STARLINK-1210,45207,53.011,0.0007252,15.93076651,288.8405866747289,298.5173885831864,1 45207U 20012AF  26038.91667824  .00394530  71404-4  11040-2 0  9997,2 45207  53.0110  53.1877 0007252  41.0293 140.6277 15.93076651  5944
STARLINK-1231,45212,53.0471,0.0001516,15.18736341,508.61442013484066,510.70279976377697,1 45212U 20012AL  26038.62591086  .00058509  00000+0  27756-2 0  9990,2 45212  53.0471 153.5777 0001516 314.2451  45.8419 15.18736341330651
STARLINK-1271,45217,53.0557,0.0001549,15.06410554,546.1064801560015,548.2519431183664,1 45217U 20012AR  26038.59819316  .00004438  00000+0  31658-3 0  9999,2 45217  53.0557 161.7075 0001549  85.3163 274.8003 15.06410554330582
STARLINK-1191,45222,53.1587,0.0001259,15.31038876,471.84895878377847,473.57400243119537,1 45222U 20012AW  26038.50361122  .00005395  00000+0  18928-3 0  9991,2 45222  53.1587 139.1420 0001259  84.3417 275.7728 15.31038876330893
STARLINK-1212,45223,53.052,0.0003092,15.42927279,435.36778218242944,439.58255674802604,1 45223U 20012AX  26038.91667824  .00061062  00000+0  13657-2 0  9991,2 45223  53.0520 132.3580 0003092 348.8229 215.1913 15.42927279  5910
STARLINK-1215,45225,53.159,0.0001284,15.30217228,474.28366639838714,476.0435940002217,1 45225U 20012AZ  26038.54558184  .00014973  00000+0  51636-3 0  9999,2 45225  53.1590 138.3205 0001284  76.3124 283.8020 15.30217228330867
STARLINK-1221,45227,53.0666,0.0001871,15.40781913,442.52396804124965,445.0767369985633,1 45227U 20012BB  26038.30609534  .00031862  00000+0  77303-3 0  9996,2 45227  53.0666  53.4604 0001871 304.6875  55.3953 15.40781913332029
STARLINK-1222,45228,53.0547,0.0001612,15.47037439,424.30130228006783,426.4947619744253,1 45228U 20012BC  26038.47856119  .00067727  00000+0  13151-2 0  9997,2 45228  53.0547 127.4201 0001612  27.9990 332.1103 15.47037439330945
STARLINK-1226,45229,53.159,0.0001311,15.3103497,471.8249848325995,473.6212803593662,1 45229U 20012BD  26038.58550114  .00013928  00000+0  46930-3 0  9992,2 45229  53.1590 138.5622 0001311  91.2330 268.8821 15.31034970330800
STARLINK-1227,45230,53.1601,0.0001391,15.31038801,471.7587512847449,473.6646573942917,1 45230U 20012BE  26038.54787171  .00003386  00000+0  12324-3 0  9992,2 45230  53.1601 139.0517 0001391  93.6247 266.4913 15.31038801330910
STARLINK-1246,45235,53.1581,0.0001695,15.29353831,476.5806707422571,478.9048139749166,1 45235U 20012BK  26038.64615869  .00013077  00000+0  46474-3 0  9993,2 45235  53.1581 178.7913 0001695  80.4568 279.6624 15.29353831330374
STARLINK-1270,45237,53.0498,0.0002593,15.42193133,437.8701526313189,441.40585074719365,1 45237U 20012BM  26038.91667824  .00041426  00000+0  95508-3 0  9994,2 45237  53.0498 129.2243 0002593 300.1205 268.4973 15.42193133  5922
STARLINK-1279,45360,53.0458,0.000772,15.51368969,407.4856219569383,417.9707177792143,1 45360U 20019A   26038.91667824  .00134619  00000+0  22169-2 0  9997,2 45360  53.0458 242.5112 0007720 118.4565 182.2347 15.51368969  5946
STARLINK-1301,45361,53.0456,0.0010128,15.57367188,388.4201065668958,402.14034049488055,1 45361U 20019B   26038.96066358  .00129563  00000+0  17139-2 0  9991,2 45361  53.0456 249.2051 0010128 110.2974 249.9127 15.57367188325963
STARLINK-1262,45366,53.0524,0.0001322,15.06378156,546.3629675310967,548.1940473912691,1 45366U 20019G   26038.96864271  .00007417  00000+0  51657-3 0  9993,2 45366  53.0524 300.0397 0001322  81.9246 278.1893 15.06378156325252
STARLINK-1273,45367,53.0527,0.0001644,15.40604659,443.20199450310974,445.44521955070104,1 45367U 20019H   26038.92482532  .00072751  00000+0  17535-2 0  9995,2 45367  53.0527 296.0344 0001644  97.9962 262.1229 15.40604659325301
STARLINK-1276,45368,53.0539,0.000145,15.06388204,546.2435304321343,548.2518919983868,1 45368U 20019J   26038.89490810 -.00005223  00000+0 -33209-3 0  9999,2 45368  53.0539 300.3733 0001450  93.3930 266.7225 15.06388204325242
STARLINK-1277,45369,53.0543,0.0001815,15.44035739,432.97639515541323,435.44927814611765,1 45369U 20019K   26038.95995858  .00020747  00000+0  45539-3 0  9994,2 45369  53.0543 294.4362 0001815  51.6157 308.5011 15.44035739325334
STARLINK-1281,45370,53.0537,0.0001521,15.06396419,546.169186024259,548.2758803942615,1 45370U 20019L   26038.95019629  .00003951  00000+0  28401-3 0  9996,2 45370  53.0537 300.1235 0001521 113.9386 246.1762 15.06396419325257
STARLINK-1300,45374,53.0539,8.81e-05,15.06398856,546.6049406188795,547.8251876525801,1 45374U 20019Q   26038.97231972  .00003794  00000+0  27344-3 0  9999,2 45374  53.0539 300.0283 0000881  69.0669 291.0414 15.06398856325258
STARLINK-1302,45375,53.0527,0.0001882,15.44487078,431.60377454575064,434.167443455779,1 45375U 20019R   26038.93625644  .00081965  00000+0  17317-2 0  9993,2 45375  53.0527 294.0209 0001882 100.8882 259.2335 15.44487078325333
STARLINK-1304,45376,53.0536,0.0005817,15.43230817,432.6173101528584,440.5455535764895,1 45376U 20019S   26038.90023189  .00073256  00000+0  16168-2 0  9994,2 45376  53.0536 291.4871 0005817 121.6818 238.4755 15.43230817325366
STARLINK-1305,45377,53.0481,0.0006822,15.47238559,420.16747186894827,429.4494106289876,1 45377U 20019T   26038.92066514  .00090028  00000+0  17271-2 0  9998,2 45377  53.0481 275.1143 0006822  77.9296 282.2475 15.47238559325605
STARLINK-1319,45379,53.0505,0.0007154,15.52995278,403.1315840316047,412.84116935898146,1 45379U 20019V   26038.89896515  .00113580  00000+0  17705-2 0  9999,2 45379  53.0505 274.3162 0007154  91.1031 269.0798 15.52995278325616
STARLINK-1266,45383,53.0521,0.0002053,15.41786507,439.43674628771714,442.236616881376,1 45383U 20019Z   26038.93312502  .00019372  00000+0  45909-3 0  9990,2 45383  53.0521 274.2960 0002053 116.5078 243.6137 15.41786507325605
STARLINK-1267,45384,53.0545,0.0007582,15.44606402,427.37097616416304,437.69867892345064,1 45384U 20019AA  26038.90278493  .00095176  00000+0  19961-2 0  9992,2 45384  53.0545 269.2919 0007582 129.7968 230.3707 15.44606402325677
STARLINK-1272,45386,53.0471,0.000727,15.50206182,411.18413719445834,421.062992055422,1 45386U 20019AC  26038.87749023  .00115694  00000+0  19917-2 0  9991,2 45386  53.0471 253.5538 0007270  98.5705 261.6127 15.50206182325891
STARLINK-1274,45387,53.0306,0.0010227,15.42912342,430.54878599610765,444.48952910075695,1 45387U 20019AD  26038.83723631  .00121971  00000+0  26946-2 0  9990,2 45387  53.0306 245.1810 0010227 131.0110 229.1781 15.42912342326000
STARLINK-1280,45388,53.047,0.0007388,15.58989462,385.57976464056264,395.5812216084032,1 45388U 20019AE  26038.90827024  .00114671  00000+0  14320-2 0  9992,2 45388  53.0470 268.1138 0007388  96.5660 263.6193 15.58989462325687
STARLINK-1283,45389,53.0482,0.001226,15.49980803,408.4516025394196,425.11274435270843,1 45389U 20019AF  26038.86137551  .00152833  00000+0  26324-2 0  9996,2 45389  53.0482 253.7974 0012260 126.8684 233.3450 15.49980803325890
STARLINK-1284,45390,53.0513,0.0003159,15.4649405,424.8418964116272,429.1413766841979,1 45390U 20019AG  26038.87031693  .00097651  00000+0  19207-2 0  9997,2 45390  53.0513 273.8664 0003159 122.7896 237.3415 15.46494050325608
